MEAN_MOTION;ECCENTRICITY;INCLINATION;RA_OF_ASC_NODE;ARG_OF_PERICENTER;MEAN_ANOMALY;BSTAR;MEAN_MOTION_DOT;MEAN_MOTION_DDOT;TYPE
14.34218349;4.27E-5;86.3973;318.0354;97.0056;263.1189;1.3937E-5;5.9E-7;0;Iridium
14.342185;4.6E-5;86.3972;317.6855;107.8005;252.3241;1.8564E-5;7.2E-7;0;Iridium
14.34218478;4.67E-5;86.3972;317.6271;108.1346;251.99;1.6434E-5;6.6E-7;0;Iridium
14.34218606;5.12E-5;86.397;317.2771;116.9472;243.1776;2.1009E-5;7.9E-7;0;Iridium
14.3421861;5.22E-5;86.397;317.1897;118.0186;242.1062;2.0166E-5;7.6E-7;0;Iridium
14.34218677;5.52E-5;86.3969;317.0147;121.6569;238.468;2.1962E-5;8.1E-7;0;Iridium
14.34218722;5.83E-5;86.3968;316.8397;124.3285;235.7966;2.2568E-5;8.3E-7;0;Iridium
14.3421885;6.66E-5;86.3967;316.4606;129.9627;230.1627;2.5529E-5;9.1E-7;0;Iridium
14.3421885;6.66E-5;86.3967;316.4606;129.9627;230.1627;2.5529E-5;9.1E-7;0;Iridium
14.34218852;6.72E-5;86.3967;316.4314;130.2898;229.8357;2.4977E-5;9.0E-7;0;Iridium
14.34218844;6.8E-5;86.3967;316.4022;130.5884;229.5371;2.3969E-5;8.7E-7;0;Iridium
14.34218844;6.8E-5;86.3967;316.4022;130.5884;229.5371;2.3969E-5;8.7E-7;0;Iridium
14.34218968;7.52E-5;86.3965;315.9939;133.7523;226.3735;2.4894E-5;8.9E-7;0;Iridium
14.34219085;7.88E-5;86.3964;315.8189;135.0384;225.0875;2.7537E-5;9.7E-7;0;Iridium
14.34219085;7.88E-5;86.3964;315.8189;135.0384;225.0875;2.7537E-5;9.7E-7;0;Iridium
14.34219025;8.5E-5;86.3963;315.5272;136.804;223.3222;2.1314E-5;7.9E-7;0;Iridium
14.34219161;8.92E-5;86.3963;315.3522;137.4369;222.6896;2.3572E-5;8.6E-7;0;Iridium
14.34219178;9.09E-5;86.3962;315.2647;137.2736;222.8531;2.3597E-5;8.6E-7;0;Iridium
14.34219221;9.39E-5;86.3962;315.1189;137.7797;222.3471;2.2533E-5;8.3E-7;0;Iridium
14.34219311;0.0001032;86.396;314.7104;138.7507;221.3767;1.9246E-5;7.4E-7;0;Iridium
14.34219411;0.0001134;86.3957;314.3311;138.9816;221.1466;1.7084E-5;6.8E-7;0;Iridium
14.34219445;0.0001169;86.3957;314.2436;139.1556;220.9728;1.8079E-5;7.0E-7;0;Iridium
14.34219515;0.0001231;86.3956;313.9519;139.019;221.1098;1.7037E-5;6.7E-7;0;Iridium
14.34219556;0.000127;86.3955;313.7769;139.176;220.9531;1.6992E-5;6.7E-7;0;Iridium
14.34219606;0.0001329;86.3954;313.5143;139.0688;221.0608;1.4529E-5;6.0E-7;0;Iridium
14.34219606;0.0001329;86.3954;313.5143;139.0688;221.0608;1.4529E-5;6.0E-7;0;Iridium
14.34219625;0.0001363;86.3954;313.3684;139.105;221.0249;1.4523E-5;6.0E-7;0;Iridium
14.34219702;0.0001418;86.3952;313.1058;138.9666;221.1636;1.477E-5;6.1E-7;0;Iridium
14.34219719;0.0001425;86.3952;313.0767;138.9547;221.1757;1.5115E-5;6.2E-7;0;Iridium
14.34219764;0.0001454;86.3952;312.9599;138.9579;221.1726;1.8201E-5;7.1E-7;0;Iridium
14.34217385;0.0001559;86.3952;312.8427;140.641;219.4899;1.7859E-5;7.0E-7;0;Iridium
14.34217301;0.0001606;86.3953;312.6675;141.3525;218.7786;1.8644E-5;7.2E-7;0;Iridium
14.34217617;0.0001596;86.395;312.6387;138.803;221.3286;1.8374E-5;7.1E-7;0;Iridium
14.34217531;0.0001622;86.395;312.2595;137.3688;222.7634;3.2741E-6;2.9E-7;0;Iridium
14.34217531;0.0001622;86.395;312.2595;137.3688;222.7634;3.2741E-6;2.9E-7;0;Iridium
14.34217514;0.0001657;86.395;312.1136;137.3519;222.7806;4.3079E-6;3.2E-7;0;Iridium
14.34217561;0.0001713;86.3948;311.8218;136.8861;223.2469;5.013E-6;3.4E-7;0;Iridium
14.34217569;0.0001747;86.3948;311.7051;136.832;223.3013;6.081E-6;3.7E-7;0;Iridium
14.34217648;0.0001803;86.3947;311.4133;136.3474;223.7864;1.1195E-5;5.1E-7;0;Iridium
14.34217722;0.0001845;86.3947;311.2674;136.2409;223.8933;1.7107E-5;6.8E-7;0;Iridium
14.34217799;0.0001899;86.3946;311.0047;135.7969;224.3378;1.8362E-5;7.1E-7;0;Iridium
14.34217879;0.0001937;86.3945;310.8588;135.6546;224.4805;2.283E-5;8.4E-7;0;Iridium
14.34217945;0.0001993;86.3944;310.5962;135.1005;225.0352;2.203E-5;8.1E-7;0;Iridium
14.34218008;0.0002027;86.3944;310.4503;134.8327;225.3034;2.5097E-5;9.0E-7;0;Iridium
14.34218115;0.000208;86.3942;310.1876;134.1702;225.9664;2.6077E-5;9.3E-7;0;Iridium
14.34218198;0.0002119;86.3942;310.0125;133.8393;226.2978;2.7984E-5;9.8E-7;0;Iridium
14.34218309;0.0002172;86.394;309.7498;133.1551;226.9827;2.8368E-5;9.9E-7;0;Iridium
14.34218351;0.0002203;86.394;309.6039;132.8562;227.2819;2.8165E-5;9.9E-7;0;Iridium
14.34218435;0.0002258;86.3939;309.3411;132.2656;227.8732;2.617E-5;9.3E-7;0;Iridium
14.3421843;0.0002264;86.3939;309.312;132.1593;227.9795;2.4822E-5;8.9E-7;0;Iridium
14.34218429;0.0002288;86.3938;309.1952;131.8823;228.2568;2.3189E-5;8.5E-7;0;Iridium
14.34218464;0.0002349;86.3937;308.9033;131.1438;228.9961;1.7977E-5;7.0E-7;0;Iridium
14.34218474;0.0002376;86.3937;308.7573;130.7332;229.407;1.7373E-5;6.8E-7;0;Iridium
14.34218436;0.0002387;86.3937;308.699;130.5933;229.547;1.352E-5;5.8E-7;0;Iridium
14.34218454;0.000247;86.3935;308.2611;129.5019;230.6395;8.6853E-6;4.4E-7;0;Iridium
14.3421844;0.0002505;86.3934;308.086;129.0307;231.1112;5.7581E-6;3.6E-7;0;Iridium
14.34218434;0.0002512;86.3934;308.0568;128.9649;231.1771;5.0653E-6;3.4E-7;0;Iridium
14.34218417;0.0002549;86.3934;307.8524;128.4798;231.6627;3.1957E-6;2.9E-7;0;Iridium
14.34218402;0.0002621;86.3933;307.5021;127.6229;232.5205;1.8664E-6;2.5E-7;0;Iridium
14.34218314;0.0002661;86.3932;307.2685;126.8147;233.3294;-2.578E-6;1.3E-7;0;Iridium
14.34218314;0.0002661;86.3932;307.2685;126.8147;233.3294;-2.578E-6;1.3E-7;0;Iridium
14.34218194;0.0002589;86.3931;306.8306;124.2963;235.8478;-3.8327E-6;9.0E-8;0;Iridium
14.34218169;0.000262;86.3931;306.6846;123.8742;236.2703;-4.4317E-6;7.0E-8;0;Iridium
14.34218101;0.0002688;86.393;306.3926;123.0572;237.0882;-6.9104E-6;0;0;Iridium
14.34218092;0.0002714;86.393;306.2466;122.6462;237.4995;-6.5502E-6;1.0E-8;0;Iridium
14.34218022;0.0002773;86.3929;305.9546;121.922;238.2245;-8.6029E-6;-4.0E-8;0;Iridium
14.34218018;0.0002799;86.3928;305.8378;121.6309;238.516;-8.088E-6;-3.0E-8;0;Iridium
14.34218019;0.0002845;86.3927;305.5458;120.691;239.4567;-7.1688E-6;0;0;Iridium
14.34218054;0.0002925;86.3927;305.1663;119.6667;240.482;-4.1433E-6;8.0E-8;0;Iridium
14.34218046;0.0002953;86.3926;304.9911;119.1311;241.0181;-3.7173E-6;9.0E-8;0;Iridium
14.34218026;0.0002989;86.3926;304.7575;118.3406;241.8091;-3.6638E-6;1.0E-7;0;Iridium
14.34218024;0.0003013;86.3926;304.5823;117.7985;242.3517;-3.0267E-6;1.1E-7;0;Iridium
14.34217974;0.000308;86.3926;304.1735;116.6303;243.5209;-3.9349E-6;9.0E-8;0;Iridium
14.34217917;0.0003119;86.3926;303.8816;115.6351;244.5167;-5.858E-6;3.0E-8;0;Iridium
14.34217808;0.0003167;86.3926;303.4728;114.2274;245.9253;-9.4036E-6;-7.0E-8;0;Iridium
14.34217823;0.0003181;86.3926;303.3267;113.7032;246.4498;-7.9391E-6;-2.0E-8;0;Iridium
14.34217838;0.0003215;86.3926;303.0347;112.6713;247.4823;-6.1093E-6;3.0E-8;0;Iridium
14.34217843;0.0003231;86.3926;302.918;112.3815;247.7723;-5.1045E-6;6.0E-8;0;Iridium
14.34217852;0.0003264;86.3926;302.626;111.3199;248.8346;-4.1255E-6;8.0E-8;0;Iridium
14.34217848;0.0003285;86.3926;302.48;110.9301;249.2246;-3.7692E-6;9.0E-8;0;Iridium
14.3421784;0.0003312;86.3925;302.2171;109.9701;250.1852;-4.0015E-6;9.0E-8;0;Iridium
14.34217834;0.000333;86.3925;302.0711;109.5046;250.651;-3.8278E-6;9.0E-8;0;Iridium
14.34217812;0.0003361;86.3924;301.7791;108.4925;251.6637;-4.4214E-6;7.0E-8;0;Iridium
14.34217812;0.0003361;86.3924;301.7791;108.4925;251.6637;-4.4214E-6;7.0E-8;0;Iridium
14.34217804;0.0003375;86.3924;301.6623;108.1188;252.0376;-4.3635E-6;8.0E-8;0;Iridium
14.34217754;0.0003398;86.3924;301.4287;107.3193;252.8374;-6.2945E-6;2.0E-8;0;Iridium
14.34217766;0.0003424;86.3923;301.2243;106.7619;253.3952;-5.492E-6;4.0E-8;0;Iridium
14.34217728;0.0003429;86.3923;301.195;106.6884;253.4688;-6.9996E-6;0;0;Iridium
14.34217688;0.0003448;86.3923;300.9614;105.9205;254.2371;-8.4184E-6;-4.0E-8;0;Iridium
14.34217662;0.0003463;86.3923;300.8154;105.4285;254.7293;-8.8373E-6;-5.0E-8;0;Iridium
14.34217659;0.0003484;86.3922;300.5526;104.4779;255.6804;-7.7063E-6;-2.0E-8;0;Iridium
14.34217662;0.0003497;86.3922;300.4065;104.0066;256.1519;-6.7182E-6;1.0E-8;0;Iridium
14.34217686;0.0003522;86.3922;300.1145;102.9755;257.1834;-4.6081E-6;7.0E-8;0;Iridium
14.34217674;0.0003535;86.3922;299.9684;102.5192;257.6399;-4.6398E-6;7.0E-8;0;Iridium
14.34217675;0.0003558;86.3922;299.7055;101.7199;258.4396;-3.7207E-6;9.0E-8;0;Iridium
14.3421768;0.0003568;86.3922;299.5595;101.3834;258.7763;-2.7319E-6;1.2E-7;0;Iridium
14.34217631;0.0003599;86.3923;299.1507;100.1682;259.9919;-3.5053E-6;1.0E-7;0;Iridium
14.34217605;0.00036;86.3923;299.0923;99.9343;260.2259;-4.6169E-6;7.0E-8;0;Iridium
14.34217576;0.0003611;86.3923;298.8879;99.1252;261.0352;-5.1167E-6;5.0E-8;0;Iridium
14.34217541;0.0003624;86.3923;298.7127;98.6121;261.5485;-6.0329E-6;3.0E-8;0;Iridium
14.34217511;0.0003642;86.3924;298.4498;97.737;262.4239;-6.5713E-6;1.0E-8;0;Iridium
14.34217487;0.0003646;86.3924;298.3038;97.183;262.978;-7.2746E-6;-1.0E-8;0;Iridium
14.34217439;0.0003659;86.3925;298.0411;96.3023;263.8589;-8.3806E-6;-4.0E-8;0;Iridium
14.34217424;0.0003668;86.3925;297.895;95.8345;264.3269;-8.2113E-6;-3.0E-8;0;Iridium
14.34217428;0.0003677;86.3925;297.6322;94.8956;265.2659;-6.8728E-6;1.0E-8;0;Iridium
14.3421741;0.0003686;86.3926;297.457;94.3218;265.8399;-6.8785E-6;1.0E-8;0;Iridium
14.34217414;0.0003694;86.3926;297.1942;93.3928;266.769;-5.7904E-6;4.0E-8;0;Iridium
14.34217414;0.0003694;86.3926;297.1942;93.3928;266.769;-5.7904E-6;4.0E-8;0;Iridium
14.342174;0.0003701;86.3926;297.0482;92.922;267.2399;-5.8584E-6;3.0E-8;0;Iridium
14.34217354;0.0003709;86.3926;296.7854;92.0604;268.1017;-7.2505E-6;-1.0E-8;0;Iridium
14.34217322;0.0003715;86.3926;296.6394;91.7076;268.4545;-8.0944E-6;-3.0E-8;0;Iridium
14.34217254;0.0003716;86.3926;296.3766;90.7315;269.4307;-1.0497E-5;-1.0E-7;0;Iridium
14.34217208;0.0003718;86.3927;296.2014;90.0988;270.0633;-1.1588E-5;-1.3E-7;0;Iridium
14.34217184;0.0003719;86.3927;295.9387;89.2352;270.927;-1.0987E-5;-1.1E-7;0;Iridium
14.34217183;0.0003723;86.3927;295.7927;88.7768;271.3854;-1.0324E-5;-9.0E-8;0;Iridium
14.34217193;0.0003723;86.3927;295.5591;87.9659;272.1963;-8.8865E-6;-5.0E-8;0;Iridium
14.34217267;0.0003722;86.3927;295.1211;86.544;273.6181;-4.2325E-6;8.0E-8;0;Iridium
14.34217411;0.0003792;86.3931;294.7121;87.2775;272.8855;5.9542E-6;3.6E-7;0;Iridium
